ONEWEB-0230             
1 48769U 21045C   24089.00209164  .00000128  00000+0  30704-3 0  9998
2 48769  87.8993  60.4827 0001949  78.9001 281.2349 13.15547915139255
ONEWEB-0237             
1 48770U 21045D   24088.99099738  .00000194  00000+0  48038-3 0  9993
2 48770  87.8999  60.4113 0001507  75.4717 284.6581 13.15548692138995
ONEWEB-0235             
1 48771U 21045E   24088.96564405  .00000075  00000+0  16642-3 0  9993
2 48771  87.8989  60.4329 0001349  63.0777 297.0491 13.15549331137850
ONEWEB-0242             
1 48772U 21045F   24088.95929514 -.00000009  00000+0 -58164-4 0  9994
2 48772  87.8988  60.4232 0001827  77.5724 282.5610 13.15549153137894
ONEWEB-0241             
1 48773U 21045G   24088.94662035 -.00000035  00000+0 -12746-3 0  9990
2 48773  87.8999  60.4650 0001452  89.8891 270.2406 13.15548120138932
ONEWEB-0243             
1 48774U 21045H   24088.90225868  .00000221  00000+0  55237-3 0  9993
2 48774  87.8998  60.4324 0001381  76.9194 283.2090 13.15549562137825
ONEWEB-0222             
1 48775U 21045J   24088.96168984  .00000003  00000+0 -25478-4 0  9999
2 48775  87.8986  60.4329 0001609  84.6068 275.5246 13.15549495137874
ONEWEB-0244             
1 48776U 21045K   24088.91177119  .00000217  00000+0  54110-3 0  9995
2 48776  87.8988  60.4266 0001902  76.0767 284.0575 13.15549037139553
